[
    {
        "officeName": "Ada B.O",
        "pincode": 504293,
        "taluk": "Asifabad",
        "districtName": "Adilabad",
        "stateName": "ANDHRA PRADESH"
    },
    {
        "officeName": "Andugulpet B.O",
        "pincode": 504231,
        "taluk": "Luxettipet",
        "districtName": "Adilabad",
        "stateName": "ANDHRA PRADESH"
    },
    {
        "officeName": "Annaram B.O",
        "pincode": 504201,
        "taluk": "Chennur",
        "districtName": "Adilabad",
        "stateName": "ANDHRA PRADESH"
    },
    {
        "officeName": "Arli (T) B.O",
        "pincode": 504312,
        "taluk": "Adilabad",
        "districtName": "Adilabad",
        "stateName": "ANDHRA PRADESH"
    },
    {
        "officeName": "Bambara B.O",
        "pincode": 504295,
        "taluk": "Asifabad",
        "districtName": "Adilabad",
        "stateName": "ANDHRA PRADESH"
    },
    {
        "officeName": "Bambara B.O",
        "pincode": 504295,
        "taluk": "Asifabad",
        "districtName": "Adilabad",
        "stateName": "ANDHRA PRADESH"
    },  {
        "officeName": "Bambara B.O",
        "pincode": 504295,
        "taluk": "Asifabad",
        "districtName": "Adilabad",
        "stateName": "ANDHRA PRADESH"
    },  {
        "officeName": "Bambara B.O",
        "pincode": 504295,
        "taluk": "Asifabad",
        "districtName": "Adilabad",
        "stateName": "ANDHRA PRADESH"
    },  {
        "officeName": "Bambara B.O",
        "pincode": 504295,
        "taluk": "Asifabad",
        "districtName": "Adilabad",
        "stateName": "ANDHRA PRADESH"
    },  {
        "officeName": "Bambara B.O",
        "pincode": 504295,
        "taluk": "Asifabad",
        "districtName": "Adilabad",
        "stateName": "ANDHRA PRADESH"
    },  {
        "officeName": "Bambara B.O",
        "pincode": 504295,
        "taluk": "Asifabad",
        "districtName": "Adilabad",
        "stateName": "ANDHRA PRADESH"
    },  {
        "officeName": "Bambara B.O",
        "pincode": 504295,
        "taluk": "Asifabad",
        "districtName": "Adilabad",
        "stateName": "ANDHRA PRADESH"
    },  {
        "officeName": "Bambara B.O",
        "pincode": 504295,
        "taluk": "Asifabad",
        "districtName": "Adilabad",
        "stateName": "ANDHRA PRADESH"
    },  {
        "officeName": "Bambara B.O",
        "pincode": 504295,
        "taluk": "Asifabad",
        "districtName": "Adilabad",
        "stateName": "ANDHRA PRADESH"
    },  {
        "officeName": "Bambara B.O",
        "pincode": 504295,
        "taluk": "Asifabad",
        "districtName": "Adilabad",
        "stateName": "ANDHRA PRADESH"
    },  {
        "officeName": "Bambara B.O",
        "pincode": 504295,
        "taluk": "Asifabad",
        "districtName": "Adilabad",
        "stateName": "ANDHRA PRADESH"
    },  {
        "officeName": "Bambara B.O",
        "pincode": 504295,
        "taluk": "Asifabad",
        "districtName": "Adilabad",
        "stateName": "ANDHRA PRADESH"
    },  {
        "officeName": "Bambara B.O",
        "pincode": 504295,
        "taluk": "Asifabad",
        "districtName": "Adilabad",
        "stateName": "ANDHRA PRADESH"
    },  {
        "officeName": "Bambara B.O",
        "pincode": 504295,
        "taluk": "Asifabad",
        "districtName": "Adilabad",
        "stateName": "ANDHRA PRADESH"
    },  {
        "officeName": "Bambara B.O",
        "pincode": 504295,
        "taluk": "Asifabad",
        "districtName": "Adilabad",
        "stateName": "ANDHRA PRADESH"
    }
    
]